start=new Date('2021-08-26T00:00:00.000Z').valueOf();
sats=[{"MEAN_ANOMALY":"279.9878","LAUNCH_DATE":"2020-04-22","TLE_LINE1":"1 45561U 20025AG  21237.41793569  .00002934  00000-0  21388-3 0  9992","EPOCH":"2021-08-25T10:01:49.643616","CLASSIFICATION_TYPE":"U","TLE_LINE2":"2 45561  53.0578 241.3404 0001771  80.1311 279.9878 15.06742430 76778","SITE":"AFETR","TIME_SYSTEM":"UTC","MEAN_ELEMENT_THEORY":"SGP4","OBJECT_TYPE":"PAYLOAD","MEAN_MOTION":"15.06742430","APOAPSIS":"547.391","INCLINATION":"53.0578","ELEMENT_SET_NO":"999","GP_ID":"183416540","RCS_SIZE":"LARGE","ARG_OF_PERICENTER":"80.1311","EPHEMERIS_TYPE":"0","DECAY_DATE":null,"SEMIMAJOR_AXIS":"6924.299","PERIAPSIS":"544.938","BSTAR":"0.00021388000000","ECCENTRICITY":"0.00017710","MEAN_MOTION_DDOT":"0.0000000000000","RA_OF_ASC_NODE":"241.3404","REV_AT_EPOCH":"7677","REF_FRAME":"TEME","OBJECT_ID":"2020-025AG","COUNTRY_CODE":"US","MEAN_MOTION_DOT":"0.00002934","NORAD_CAT_ID":"45561","FILE":"3103042","PERIOD":"95.570","OBJECT_NAME":"STARLINK-1348","CENTER_NAME":"EARTH"},{"RA_OF_ASC_NODE":"325.9733","REV_AT_EPOCH":"7559","REF_FRAME":"TEME","OBJECT_ID":"2020-025AH","NORAD_CAT_ID":"45562","COUNTRY_CODE":"US","MEAN_MOTION_DOT":"-0.00000936","OBJECT_NAME":"STARLINK-1354","CENTER_NAME":"EARTH","FILE":"3103042","PERIOD":"95.593","EPHEMERIS_TYPE":"0","SEMIMAJOR_AXIS":"6925.369","DECAY_DATE":null,"PERIAPSIS":"546.565","BSTAR":"-0.00004397700000","MEAN_MOTION_DDOT":"0.0000000000000","ECCENTRICITY":"0.00009660","TLE_LINE2":"2 45562  53.0549 325.9733 0000966  98.2733 261.8365 15.06393365 75593","SITE":"AFETR","MEAN_ELEMENT_THEORY":"SGP4","TIME_SYSTEM":"UTC","MEAN_MOTION":"15.06393365","APOAPSIS":"547.903","OBJECT_TYPE":"PAYLOAD","GP_ID":"183417291","INCLINATION":"53.0549","ELEMENT_SET_NO":"999","RCS_SIZE":"LARGE","ARG_OF_PERICENTER":"98.2733","LAUNCH_DATE":"2020-04-22","MEAN_ANOMALY":"261.8365","TLE_LINE1":"1 45562U 20025AH  21237.51585603 -.00000936  00000-0 -43977-4 0  9993","EPOCH":"2021-08-25T12:22:49.960992","CLASSIFICATION_TYPE":"U"},{"NORAD_CAT_ID":"45563","COUNTRY_CODE":"US","MEAN_MOTION_DOT":"0.00001157","OBJECT_NAME":"STARLINK-1355","CENTER_NAME":"EARTH","FILE":"3103208","PERIOD":"95.592","RA_OF_ASC_NODE":"325.0089","REV_AT_EPOCH":"7562","REF_FRAME":"TEME","OBJECT_ID":"2020-025AJ","BSTAR":"0.00009656300000","MEAN_MOTION_DDOT":"0.0000000000000","ECCENTRICITY":"0.00009600","EPHEMERIS_TYPE":"0","SEMIMAJOR_AXIS":"6925.365","DECAY_DATE":null,"PERIAPSIS":"546.565","GP_ID":"183444994","INCLINATION":"53.0558","ELEMENT_SET_NO":"999","RCS_SIZE":"LARGE","ARG_OF_PERICENTER":"102.9437","SITE":"AFETR","TLE_LINE2":"2 45563  53.0558 325.0089 0000960 102.9437 257.1659 15.06394696 75623","MEAN_ELEMENT_THEORY":"SGP4","TIME_SYSTEM":"UTC","APOAPSIS":"547.895","MEAN_MOTION":"15.06394696","OBJECT_TYPE":"PAYLOAD","EPOCH":"2021-08-25T17:30:41.727168","CLASSIFICATION_TYPE":"U","MEAN_ANOMALY":"257.1659","LAUNCH_DATE":"2020-04-22","TLE_LINE1":"1 45563U 20025AJ  21237.72964962  .00001157  00000-0  96563-4 0  9999"},{"MEAN_ANOMALY":"244.6345","LAUNCH_DATE":"2020-04-22","TLE_LINE1":"1 45564U 20025AK  21237.72596077  .00002055  00000-0  15681-3 0  9997","CLASSIFICATION_TYPE":"U","EPOCH":"2021-08-25T17:25:23.010528","TLE_LINE2":"2 45564  53.0542 325.0295 0000683 115.4715 244.6345 15.06399015 75629","SITE":"AFETR","TIME_SYSTEM":"UTC","MEAN_ELEMENT_THEORY":"SGP4","OBJECT_TYPE":"PAYLOAD","MEAN_MOTION":"15.06399015","APOAPSIS":"547.690","ELEMENT_SET_NO":"999","INCLINATION":"53.0542","GP_ID":"183444753","RCS_SIZE":"LARGE","ARG_OF_PERICENTER":"115.4715","EPHEMERIS_TYPE":"0","DECAY_DATE":null,"SEMIMAJOR_AXIS":"6925.352","PERIAPSIS":"546.744","BSTAR":"0.00015681000000","ECCENTRICITY":"0.00006830","MEAN_MOTION_DDOT":"0.0000000000000","RA_OF_ASC_NODE":"325.0295","REV_AT_EPOCH":"7562","REF_FRAME":"TEME","OBJECT_ID":"2020-025AK","COUNTRY_CODE":"US","MEAN_MOTION_DOT":"0.00002055","NORAD_CAT_ID":"45564","FILE":"3103208","PERIOD":"95.592","CENTER_NAME":"EARTH","OBJECT_NAME":"STARLINK-1356"},{"EPOCH":"2021-08-25T17:14:45.797568","CLASSIFICATION_TYPE":"U","MEAN_ANOMALY":"253.9252","LAUNCH_DATE":"2020-04-22","TLE_LINE1":"1 45565U 20025AL  21237.71858562  .00001050  00000-0  89391-4 0  9991","GP_ID":"183444004","INCLINATION":"53.0550","ELEMENT_SET_NO":"999","RCS_SIZE":"LARGE","ARG_OF_PERICENTER":"106.1826","SITE":"AFETR","TLE_LINE2":"2 45565  53.0550 325.0618 0000814 106.1826 253.9252 15.06397995 75629","MEAN_MOTION":"15.06397995","APOAPSIS":"547.783","OBJECT_TYPE":"PAYLOAD","MEAN_ELEMENT_THEORY":"SGP4","TIME_SYSTEM":"UTC","BSTAR":"0.00008939100000","MEAN_MOTION_DDOT":"0.0000000000000","ECCENTRICITY":"0.00008140","SEMIMAJOR_AXIS":"6925.355","DECAY_DATE":null,"EPHEMERIS_TYPE":"0","PERIAPSIS":"546.656","NORAD_CAT_ID":"45565","COUNTRY_CODE":"US","MEAN_MOTION_DOT":"0.00001050","CENTER_NAME":"EARTH","OBJECT_NAME":"STARLINK-1357","FILE":"3103208","PERIOD":"95.592","RA_OF_ASC_NODE":"325.0618","OBJECT_ID":"2020-025AL","REV_AT_EPOCH":"7562","REF_FRAME":"TEME"},{"EPOCH":"2021-08-25T22:22:35.949792","CLASSIFICATION_TYPE":"U","TLE_LINE1":"1 45566U 20025AM  21237.93236053  .00000828  00000-0  74469-4 0  9993","MEAN_ANOMALY":"247.8332","LAUNCH_DATE":"2020-04-22","RCS_SIZE":"LARGE","ARG_OF_PERICENTER":"112.2755","GP_ID":"183443748","INCLINATION":"53.0575","ELEMENT_SET_NO":"999","MEAN_ELEMENT_THEORY":"SGP4","TIME_SYSTEM":"UTC","MEAN_MOTION":"15.06406724","APOAPSIS":"547.831","OBJECT_TYPE":"PAYLOAD","TLE_LINE2":"2 45566  53.0575 324.0928 0000922 112.2755 247.8332 15.06406724 75654","SITE":"AFETR","MEAN_MOTION_DDOT":"0.0000000000000","ECCENTRICITY":"0.00009220","BSTAR":"0.00007446900000","PERIAPSIS":"546.554","EPHEMERIS_TYPE":"0","SEMIMAJOR_AXIS":"6925.328","DECAY_DATE":null,"CENTER_NAME":"EARTH","OBJECT_NAME":"STARLINK-1358","FILE":"3103208","PERIOD":"95.592","NORAD_CAT_ID":"45566","MEAN_MOTION_DOT":"0.00000828","COUNTRY_CODE":"US","REV_AT_EPOCH":"7565","REF_FRAME":"TEME","OBJECT_ID":"2020-025AM","RA_OF_ASC_NODE":"324.0928"},{"EPOCH":"2021-08-25T17:51:55.161216","CLASSIFICATION_TYPE":"U","TLE_LINE1":"1 45567U 20025AN  21237.74438844 -.00000910  00000-0 -42207-4 0  9994","LAUNCH_DATE":"2020-04-22","MEAN_ANOMALY":"255.7652","RCS_SIZE":"LARGE","ARG_OF_PERICENTER":"104.3437","INCLINATION":"53.0548","ELEMENT_SET_NO":"999","GP_ID":"183444494","OBJECT_TYPE":"PAYLOAD","APOAPSIS":"547.858","MEAN_MOTION":"15.06393864","TIME_SYSTEM":"UTC","MEAN_ELEMENT_THEORY":"SGP4","SITE":"AFETR","TLE_LINE2":"2 45567  53.0548 324.9462 0000903 104.3437 255.7652 15.06393864 75636","ECCENTRICITY":"0.00009030","MEAN_MOTION_DDOT":"0.0000000000000","BSTAR":"-0.00004220700000","PERIAPSIS":"546.607","DECAY_DATE":null,"SEMIMAJOR_AXIS":"6925.367","EPHEMERIS_TYPE":"0","PERIOD":"95.593","FILE":"3103208","OBJECT_NAME":"STARLINK-1361","CENTER_NAME":"EARTH","MEAN_MOTION_DOT":"-0.00000910","COUNTRY_CODE":"US","NORAD_CAT_ID":"45567","OBJECT_ID":"2020-025AN","REV_AT_EPOCH":"7563","REF_FRAME":"TEME","RA_OF_ASC_NODE":"324.9462"},{"EPOCH":"2021-08-25T22:26:33.772704","CLASSIFICATION_TYPE":"U","LAUNCH_DATE":"2020-04-22","MEAN_ANOMALY":"259.0726","TLE_LINE1":"1 45568U 20025AP  21237.93511311 -.00000277  00000-0  27876-6 0  9999","INCLINATION":"53.0553","ELEMENT_SET_NO":"999","GP_ID":"183445254","RCS_SIZE":"LARGE","ARG_OF_PERICENTER":"101.0380","SITE":"AFETR","TLE_LINE2":"2 45568  53.0553 324.0902 0001039 101.0380 259.0726 15.06394487 75658","OBJECT_TYPE":"PAYLOAD","APOAPSIS":"547.950","MEAN_MOTION":"15.06394487","TIME_SYSTEM":"UTC","MEAN_ELEMENT_THEORY":"SGP4","BSTAR":"0.00000027876000","ECCENTRICITY":"0.00010390","MEAN_MOTION_DDOT":"0.0000000000000","DECAY_DATE":null,"SEMIMAJOR_AXIS":"6925.365","EPHEMERIS_TYPE":"0","PERIAPSIS":"546.511","MEAN_MOTION_DOT":"-0.00000277","COUNTRY_CODE":"US","NORAD_CAT_ID":"45568","PERIOD":"95.592","FILE":"3103208","CENTER_NAME":"EARTH","OBJECT_NAME":"STARLINK-1363","RA_OF_ASC_NODE":"324.0902","OBJECT_ID":"2020-025AP","REV_AT_EPOCH":"7565","REF_FRAME":"TEME"},{"SEMIMAJOR_AXIS":"6925.370","DECAY_DATE":null,"EPHEMERIS_TYPE":"0","PERIAPSIS":"546.454","BSTAR":"-0.00003729300000","MEAN_MOTION_DDOT":"0.0000000000000","ECCENTRICITY":"0.00011270","RA_OF_ASC_NODE":"324.9268","OBJECT_ID":"2020-025AQ","REV_AT_EPOCH":"7562","REF_FRAME":"TEME","NORAD_CAT_ID":"45569","COUNTRY_CODE":"US","MEAN_MOTION_DOT":"-0.00000837","CENTER_NAME":"EARTH","OBJECT_NAME":"STARLINK-1366","PERIOD":"95.593","FILE":"3103208","LAUNCH_DATE":"2020-04-22","MEAN_ANOMALY":"249.8771","TLE_LINE1":"1 45569U 20025AQ  21237.74807595 -.00000837  00000-0 -37293-4 0  9996","EPOCH":"2021-08-25T17:57:13.762080","CLASSIFICATION_TYPE":"U","SITE":"AFETR","TLE_LINE2":"2 45569  53.0551 324.9268 0001127 110.2340 249.8771 15.06393009 75620","MEAN_MOTION":"15.06393009","APOAPSIS":"548.015","OBJECT_TYPE":"PAYLOAD","MEAN_ELEMENT_THEORY":"SGP4","TIME_SYSTEM":"UTC","GP_ID":"183443504","INCLINATION":"53.0551","ELEMENT_SET_NO":"999","RCS_SIZE":"LARGE","ARG_OF_PERICENTER":"110.2340"},{"TIME_SYSTEM":"UTC","MEAN_ELEMENT_THEORY":"SGP4","OBJECT_TYPE":"PAYLOAD","MEAN_MOTION":"15.06400691","APOAPSIS":"548.067","TLE_LINE2":"2 45570  53.0548 324.9626 0001235 103.2495 256.8631 15.06400691 75628","SITE":"AFETR","RCS_SIZE":"LARGE","ARG_OF_PERICENTER":"103.2495","INCLINATION":"53.0548","ELEMENT_SET_NO":"999","GP_ID":"183444249","TLE_LINE1":"1 45570U 20025AR  21237.74069552  .00000762  00000-0  70057-4 0  9991","MEAN_ANOMALY":"256.8631","LAUNCH_DATE":"2020-04-22","CLASSIFICATION_TYPE":"U","EPOCH":"2021-08-25T17:46:36.092928","REV_AT_EPOCH":"7562","REF_FRAME":"TEME","OBJECT_ID":"2020-025AR","RA_OF_ASC_NODE":"324.9626","FILE":"3103208","PERIOD":"95.592","OBJECT_NAME":"STARLINK-1376","CENTER_NAME":"EARTH","COUNTRY_CODE":"US","MEAN_MOTION_DOT":"0.00000762","NORAD_CAT_ID":"45570","PERIAPSIS":"546.356","EPHEMERIS_TYPE":"0","DECAY_DATE":null,"SEMIMAJOR_AXIS":"6925.346","ECCENTRICITY":"0.00012350","MEAN_MOTION_DDOT":"0.0000000000000","BSTAR":"0.00007005700000"}];
